{"type": "FeatureCollection", "features": [ {"type": "Feature", "properties": {"norad_id": 41785, "name": "ALSAT 1B", "group": "resource", "lat": -78.76961914973228, "lon": 142.3388231771261, "alt_km": 669.3620230320857, "timestamp": "2025-12-20T09:36:01.289119+00:00", "meta": {"OBJECT_NAME": "ALSAT 1B", "OBJECT_ID": "2016-059C", "EPOCH": "2025-12-20T03:31:15.040704", "MEAN_MOTION": 14.72083934, "ECCENTRICITY": 0.0010793, "INCLINATION": 97.7806, "RA_OF_ASC_NODE": 5.6172, "ARG_OF_PERICENTER": 82.7089, "MEAN_ANOMALY": 277.5346, "EPHEMERIS_TYPE": 0, "CLASSIFICATION_TYPE": "U", "NORAD_CAT_ID": 41785, "ELEMENT_SET_NO": 999, "REV_AT_EPOCH": 49423, "BSTAR": 0.00011459, "MEAN_MOTION_DOT": 6.74e-06, "MEAN_MOTION_DDOT": 0}, "tle": {"line1": "1 41785U 16059C   25354.14670186  .00000674  00000+0  11459-3 0  9997", "line2": "2 41785  97.7806   5.6172 0010793  82.7089 277.5346 14.72083934494236"}}, "geometry": {"type": "Point", "coordinates": [142.3388231771261, -78.76961914973228]}}, {"type": "Feature", "properties": {"norad_id": 41787, "name": "PATHFINDER 1", "group": "resource", "lat": -29.583716897468186, "lon": 172.3472067311152, "alt_km": 694.09362073585, "timestamp": "2025-12-20T09:36:01.289129+00:00", "meta": {"OBJECT_NAME": "PATHFINDER 1", "OBJECT_ID": "2016-059E", "EPOCH": "2025-12-19T22:49:46.698816", "MEAN_MOTION": 14.67332832, "ECCENTRICITY": 0.0029853, "INCLINATION": 97.8135, "RA_OF_ASC_NODE": 356.3902, "ARG_OF_PERICENTER": 59.2562, "MEAN_ANOMALY": 301.1577, "EPHEMERIS_TYPE": 0, "CLASSIFICATION_TYPE": "U", "NORAD_CAT_ID": 41787, "ELEMENT_SET_NO": 999, "REV_AT_EPOCH": 49342, "BSTAR": 0.0001042, "MEAN_MOTION_DOT": 5.46e-06, "MEAN_MOTION_DDOT": 0}, "tle": {"line1": "1 41787U 16059E   25353.95123494  .00000546  00000+0  10420-3 0  9997", "line2": "2 41787  97.8135 356.3902 0029853  59.2562 301.1577 14.67332832493421"}}, "geometry": {"type": "Point", "coordinates": [172.3472067311152, -29.583716897468186]}}, {"type": "Feature", "properties": {"norad_id": 41790, "name": "SCATSAT 1", "group": "resource", "lat": 16.69080971244999, "lon": -126.3730758759461, "alt_km": 612.7806409245914, "timestamp": "2025-12-20T09:36:01.289139+00:00", "meta": {"OBJECT_NAME": "SCATSAT 1", "OBJECT_ID": "2016-059H", "EPOCH": "2025-12-20T03:59:58.946208", "MEAN_MOTION": 14.78958781, "ECCENTRICITY": 0.0056447, "INCLINATION": 98.1453, "RA_OF_ASC_NODE": 50.9294, "ARG_OF_PERICENTER": 104.5786, "MEAN_ANOMALY": 256.1694, "EPHEMERIS_TYPE": 0, "CLASSIFICATION_TYPE": "U", "NORAD_CAT_ID": 41790, "ELEMENT_SET_NO": 999, "REV_AT_EPOCH": 7512, "BSTAR": 0.00013991, "MEAN_MOTION_DOT": 1.004e-05, "MEAN_MOTION_DDOT": 0}, "tle": {"line1": "1 41790U 16059H   25354.16665447  .00001004  00000+0  13991-3 0  9990", "line2": "2 41790  98.1453  50.9294 0056447 104.5786 256.1694 14.78958781 75125"}}, "geometry": {"type": "Point", "coordinates": [-126.3730758759461, 16.69080971244999]}}, {"type": "Feature", "properties": {"norad_id": 41875, "name": "GOKTURK 1A", "group": "resource", "lat": 17.802687104561286, "lon": 69.29831122332392, "alt_km": 684.4737374588758, "timestamp": "2025-12-20T09:36:01.289150+00:00", "meta": {"OBJECT_NAME": "GOKTURK 1A", "OBJECT_ID": "2016-073A", "EPOCH": "2025-12-20T05:34:45.781248", "MEAN_MOTION": 14.62788914, "ECCENTRICITY": 0.0001266, "INCLINATION": 98.1435, "RA_OF_ASC_NODE": 246.4976, "ARG_OF_PERICENTER": 80.1955, "MEAN_ANOMALY": 279.939, "EPHEMERIS_TYPE": 0, "CLASSIFICATION_TYPE": "U", "NORAD_CAT_ID": 41875, "ELEMENT_SET_NO": 999, "REV_AT_EPOCH": 48266, "BSTAR": 0.00014557, "MEAN_MOTION_DOT": 6.96e-06, "MEAN_MOTION_DDOT": 0}, "tle": {"line1": "1 41875U 16073A   25354.23247432  .00000696  00000+0  14557-3 0  9993", "line2": "2 41875  98.1435 246.4976 0001266  80.1955 279.9390 14.62788914482663"}}, "geometry": {"type": "Point", "coordinates": [69.29831122332392, 17.802687104561286]}}, {"type": "Feature", "properties": {"norad_id": 41877, "name": "RESOURCESAT-2A", "group": "resource", "lat": 22.61337606929076, "lon": -112.09923981021304, "alt_km": 819.0397849326973, "timestamp": "2025-12-20T09:36:01.289160+00:00", "meta": {"OBJECT_NAME": "RESOURCESAT-2A", "OBJECT_ID": "2016-074A", "EPOCH": "2025-12-20T05:29:08.713248", "MEAN_MOTION": 14.21602611, "ECCENTRICITY": 0.0001407, "INCLINATION": 98.7755, "RA_OF_ASC_NODE": 64.0413, "ARG_OF_PERICENTER": 218.9188, "MEAN_ANOMALY": 141.1888, "EPHEMERIS_TYPE": 0, "CLASSIFICATION_TYPE": "U", "NORAD_CAT_ID": 41877, "ELEMENT_SET_NO": 999, "REV_AT_EPOCH": 46887, "BSTAR": 3.5055e-05, "MEAN_MOTION_DOT": 3.2e-07, "MEAN_MOTION_DDOT": 0}, "tle": {"line1": "1 41877U 16074A   25354.22857307  .00000032  00000+0  35055-4 0  9994", "line2": "2 41877  98.7755  64.0413 0001407 218.9188 141.1888 14.21602611468875"}}, "geometry": {"type": "Point", "coordinates": [-112.09923981021304, 22.61337606929076]}}, {"type": "Feature", "properties": {"norad_id": 41948, "name": "CARTOSAT-2D", "group": "resource", "lat": -26.98899196259826, "lon": 55.596642479166874, "alt_km": 517.2723324534609, "timestamp": "2025-12-20T09:36:01.289170+00:00", "meta": {"OBJECT_NAME": "CARTOSAT-2D", "OBJECT_ID": "2017-008A", "EPOCH": "2025-12-20T04:58:41.273760", "MEAN_MOTION": 15.19327148, "ECCENTRICITY": 0.000534, "INCLINATION": 97.4386, "RA_OF_ASC_NODE": 51.5917, "ARG_OF_PERICENTER": 139.9598, "MEAN_ANOMALY": 220.2031, "EPHEMERIS_TYPE": 0, "CLASSIFICATION_TYPE": "U", "NORAD_CAT_ID": 41948, "ELEMENT_SET_NO": 999, "REV_AT_EPOCH": 49040, "BSTAR": 0.0001029, "MEAN_MOTION_DOT": 2.106e-05, "MEAN_MOTION_DDOT": 0}, "tle": {"line1": "1 41948U 17008A   25354.20742215  .00002106  00000+0  10290-3 0  9997", "line2": "2 41948  97.4386  51.5917 0005340 139.9598 220.2031 15.19327148490407"}}, "geometry": {"type": "Point", "coordinates": [55.596642479166874, -26.98899196259826]}}, {"type": "Feature", "properties": {"norad_id": 42063, "name": "SENTINEL-2B", "group": "resource", "lat": 18.901291858799386, "lon": 63.77866691785635, "alt_km": 788.9676707576773, "timestamp": "2025-12-20T09:36:01.289182+00:00", "meta": {"OBJECT_NAME": "SENTINEL-2B", "OBJECT_ID": "2017-013A", "EPOCH": "2025-12-20T04:28:34.589280", "MEAN_MOTION": 14.30813362, "ECCENTRICITY": 0.0001174, "INCLINATION": 98.5715, "RA_OF_ASC_NODE": 66.5284, "ARG_OF_PERICENTER": 93.726, "MEAN_ANOMALY": 266.4057, "EPHEMERIS_TYPE": 0, "CLASSIFICATION_TYPE": "U", "NORAD_CAT_ID": 42063, "ELEMENT_SET_NO": 999, "REV_AT_EPOCH": 45904, "BSTAR": 4.2335e-05, "MEAN_MOTION_DOT": 6.7e-07, "MEAN_MOTION_DDOT": 0}, "tle": {"line1": "1 42063U 17013A   25354.18651145  .00000067  00000+0  42335-4 0  9990", "line2": "2 42063  98.5715  66.5284 0001174  93.7260 266.4057 14.30813362459046"}}, "geometry": {"type": "Point", "coordinates": [63.77866691785635, 18.901291858799386]}}, {"type": "Feature", "properties": {"norad_id": 42767, "name": "CARTOSAT-2E", "group": "resource", "lat": -61.235901433345674, "lon": -141.91442014167208, "alt_km": 513.9630774076713, "timestamp": "2025-12-20T09:36:01.289192+00:00", "meta": {"OBJECT_NAME": "CARTOSAT-2E", "OBJECT_ID": "2017-036C", "EPOCH": "2025-12-20T03:47:45.099168", "MEAN_MOTION": 15.19267216, "ECCENTRICITY": 0.0002511, "INCLINATION": 97.4555, "RA_OF_ASC_NODE": 51.6483, "ARG_OF_PERICENTER": 200.7751, "MEAN_ANOMALY": 159.3382, "EPHEMERIS_TYPE": 0, "CLASSIFICATION_TYPE": "U", "NORAD_CAT_ID": 42767, "ELEMENT_SET_NO": 999, "REV_AT_EPOCH": 47096, "BSTAR": 0.00012539, "MEAN_MOTION_DOT": 2.576e-05, "MEAN_MOTION_DDOT": 0}, "tle": {"line1": "1 42767U 17036C   25354.15816087  .00002576  00000+0  12539-3 0  9990", "line2": "2 42767  97.4555  51.6483 0002511 200.7751 159.3382 15.19267216470968"}}, "geometry": {"type": "Point", "coordinates": [-141.91442014167208, -61.235901433345674]}}, {"type": "Feature", "properties": {"norad_id": 42920, "name": "FORMOSAT-5", "group": "resource", "lat": -33.25878676213445, "lon": -116.89120392988146, "alt_km": 726.0137623007122, "timestamp": "2025-12-20T09:36:01.289203+00:00", "meta": {"OBJECT_NAME": "FORMOSAT-5", "OBJECT_ID": "2017-049A", "EPOCH": "2025-12-20T03:39:08.028000", "MEAN_MOTION": 14.50764558, "ECCENTRICITY": 0.0009839, "INCLINATION": 98.2445, "RA_OF_ASC_NODE": 68.3226, "ARG_OF_PERICENTER": 276.342, "MEAN_ANOMALY": 83.6654, "EPHEMERIS_TYPE": 0, "CLASSIFICATION_TYPE": "U", "NORAD_CAT_ID": 42920, "ELEMENT_SET_NO": 999, "REV_AT_EPOCH": 44071, "BSTAR": 4.6909e-05, "MEAN_MOTION_DOT": 1.41e-06, "MEAN_MOTION_DDOT": 0}, "tle": {"line1": "1 42920U 17049A   25354.15217625  .00000141  00000+0  46909-4 0  9993", "line2": "2 42920  98.2445  68.3226 0009839 276.3420  83.6654 14.50764558440714"}}, "geometry": {"type": "Point", "coordinates": [-116.89120392988146, -33.25878676213445]}}, {"type": "Feature", "properties": {"norad_id": 42969, "name": "SENTINEL-5P", "group": "resource", "lat": 71.92949272761204, "lon": 141.18774733783036, "alt_km": 819.3176889402812, "timestamp": "2025-12-20T09:36:01.289213+00:00", "meta": {"OBJECT_NAME": "SENTINEL-5P", "OBJECT_ID": "2017-064A", "EPOCH": "2025-12-20T02:20:13.365888", "MEAN_MOTION": 14.19519194, "ECCENTRICITY": 0.0001016, "INCLINATION": 98.7796, "RA_OF_ASC_NODE": 292.6165, "ARG_OF_PERICENTER": 90.4056, "MEAN_ANOMALY": 269.7237, "EPHEMERIS_TYPE": 0, "CLASSIFICATION_TYPE": "U", "NORAD_CAT_ID": 42969, "ELEMENT_SET_NO": 999, "REV_AT_EPOCH": 42415, "BSTAR": 4.0478e-05, "MEAN_MOTION_DOT": 4.1e-07, "MEAN_MOTION_DDOT": 0}, "tle": {"line1": "1 42969U 17064A   25354.09737692  .00000041  00000+0  40478-4 0  9991", "line2": "2 42969  98.7796 292.6165 0001016  90.4056 269.7237 14.19519194424157"}}, "geometry": {"type": "Point", "coordinates": [141.18774733783036, 71.92949272761204]}}]}